HAIYANG-2D              
1 48621U 21043A   26162.94266706 -.00000067  00000+0  12588-4 0  9999
2 48621  65.9994 317.7570 0011407 269.7101  90.2660 13.83375745255825
2021-050D               
1 48843U 21050D   26162.94915284  .00003812  00000+0  16373-3 0  9990
2 48843  97.3340 239.1041 0004023 288.3340  71.7459 15.23275470278165
TYVAK-0173              
1 48892U 21059P   26162.79575930  .00001469  00000+0  18965-3 0  9991
2 48892  96.0086 240.4925 0010531  55.7012 304.5201 14.81872977267440
MANDRAKE 2 ABLE         
1 48907U 21059AE  26162.83247283  .00020211  00000+0  30509-3 0  9994
2 48907  97.7036 352.2097 0004910  25.3973 334.7521 15.54776018276298
MANDRAKE 2 BAKER        
1 48908U 21059AF  26162.90805983  .00024225  00000+0  30899-3 0  9991
2 48908  97.7006 355.1259 0003346  27.3885 332.7547 15.59295789276476
PACE-1                  
1 48909U 21059AG  26162.51534573  .00083703  00000+0  47302-3 0  9996
2 48909  97.6761   0.0210 0000684 308.1771  51.9434 15.78887858276901
YAM-3                   
1 48915U 21059AN  26162.89759681  .00010655  00000+0  20258-3 0  9990
2 48915  97.6991 349.5081 0005487  28.4320 331.7228 15.48438675276173
FARADAY_PHOENIX         
1 48924U 21059AX  26162.50803580  .00125395  00000+0  76561-3 0  9992
2 48924  97.6816 359.9107 0002426 329.9977  30.1149 15.77019254276767
DEMO8 (TENZING)         
1 48951U 21059CA  26162.51369918  .00019146  00000+0  28895-3 0  9998
2 48951  97.7029 355.5025 0006772  16.5857 343.5616 15.54781766276421
FENGYUN 3E              
1 49008U 21062A   26162.98714271  .00000081  00000+0  58676-4 0  9992
2 49008  98.7494 166.4528 0002775  94.5916 265.5578 14.19904044255849
ISS (NAUKA)             
1 49044U 21066A   26162.83551937  .00007284  00000+0  13937-3 0  9990
2 49044  51.6334 326.5798 0004934 175.2433 184.8603 15.49179015570767
STARLINK-3100           
1 49144U 21082Q   26162.96651781  .00000178  00000+0  22711-4 0  9997
2 49144  70.0003  56.7425 0002926 266.3892  93.6933 14.98319901260105
CUTE                    
1 49263U 21088D   26162.78329995  .00179217  13983-4  55612-3 0  9999
2 49263  97.4166 261.5608 0007892 239.7585 120.2908 15.91604876261695
2021-091B               
1 49316U 21091B   26162.98613569  .00003226  00000+0  15915-3 0  9996
2 49316  97.4480 350.6408 0014869  61.8854 298.3881 15.18530256258193
SDGSAT 1                
1 49387U 21100A   26162.96403512  .00002064  00000+0  99149-4 0  9999
2 49387  97.2644 210.1071 0006759 322.1731  37.9029 15.19900729255121
TEIKYOSAT-4 (OORURI)    
1 49396U 21102B   26162.81753398  .00001775  00000+0  11448-3 0  9998
2 49396  97.3672 192.5098 0010819 317.6256  42.4137 15.09490070251914
Z-SAT                   
1 49399U 21102E   26162.99128762  .00003149  00000+0  15676-3 0  9995
2 49399  97.3332 198.4716 0014823 265.2603  94.6938 15.18223160252659
HIBARI                  
1 49400U 21102F   26162.71423771  .00009420  00000+0  31046-3 0  9993
2 49400  97.3244 208.6799 0010806 211.6516 148.4077 15.31618612253359
KOSEN-1                 
1 49402U 21102H   26162.63638323  .00006530  00000+0  25045-3 0  9998
2 49402  97.3194 204.9014 0012633 221.0806 138.9483 15.26758585253174
GLOBAL-14               
1 49469U 21106A   26162.15973503  .00022809  00000+0  39448-3 0  9993
2 49469  42.0052 326.8943 0016740 337.2624  22.7477 15.50302998257192
GAOFEN-3 02             
1 49495U 21109A   26162.98432150 -.00000035  00000+0  26911-5 0  9995
2 49495  98.4091 171.1547 0003253  29.9074 330.2301 14.42216148239564
GLOBAL-12               
1 49772U 21115BA  26162.47618628  .00032115  00000+0  50720-3 0  9996
2 49772  53.1954  71.9934 0003382  58.0826 302.0514 15.53231408255016
GLOBAL-13               
1 49773U 21115BB  26162.94786720  .00018338  00000+0  37975-3 0  9996
2 49773  53.1976  79.4895 0004106  97.9358 262.2116 15.45841987254954
GLOBAL-17               
1 49949U 21120A   26162.94102096  .00026536  00000+0  43169-3 0  9996
2 49949  41.9943  80.5477 0014945 222.6715 137.2970 15.51980611254081
GLOBAL-16               
1 49950U 21120B   26162.49638170  .00023979  00000+0  42119-3 0  9997
2 49950  41.9943  86.8211 0012715 212.0870 147.9201 15.49906392253968
XW-3 (CAS-9)            
1 50466U 21131B   26162.98700262  .00000422  00000+0  14399-3 0  9996
2 50466  98.4973 255.4047 0005282 108.2451 251.9313 14.41352679234362
ION SCV-004             
1 50993U 22002K   26162.93864430  .00004707  00000+0  16254-3 0  9994
2 50993  97.2843 220.6956 0007738  25.9115 334.2512 15.30399738244490
ETV-A1                  
1 51060U 22002CE  26162.94758168  .00010197  00000+0  25272-3 0  9991
2 51060  97.2887 229.2679 0005122  22.5516 337.5955 15.40571938245037
BRO-5                   
1 51061U 22002CF  26162.94769859  .00025715  00000+0  50871-3 0  9996
2 51061  97.3006 236.5710 0004036 355.2592   4.8619 15.47077145245446
