OBJECT_NAME,OBJECT_ID,EPOCH,MEAN_MOTION,ECCENTRICITY,INCLINATION,RA_OF_ASC_NODE,ARG_OF_PERICENTER,MEAN_ANOMALY,EPHEMERIS_TYPE,CLASSIFICATION_TYPE,NORAD_CAT_ID,ELEMENT_SET_NO,REV_AT_EPOCH,BSTAR,MEAN_MOTION_DOT,MEAN_MOTION_DDOT
HAIYANG-2D,2021-043A,2026-06-11T22:37:26.433984,13.83375745,.00114077,65.9994,317.7570,269.7101,90.2660,0,U,48621,999,25582,.12588358E-4,-.67E-6,0
2021-050D,2021-050D,2026-06-11T22:46:46.805376,15.23275470,.0004023,97.3340,239.1041,288.3340,71.7459,0,U,48843,999,27816,.16372574E-3,.3812E-4,0
TYVAK-0173,2021-059P,2026-06-11T19:05:53.603520,14.81872977,.00105315,96.0086,240.4925,55.7012,304.5201,0,U,48892,999,26744,.18964837E-3,.1469E-4,0
MANDRAKE 2 ABLE,2021-059AE,2026-06-11T19:58:45.652512,15.54776018,.00049102,97.7036,352.2097,25.3973,334.7521,0,U,48907,999,27629,.30508777E-3,.20211E-3,0
MANDRAKE 2 BAKER,2021-059AF,2026-06-11T21:47:36.369312,15.59295789,.00033466,97.7006,355.1259,27.3885,332.7547,0,U,48908,999,27647,.30898665E-3,.24225E-3,0
PACE-1,2021-059AG,2026-06-11T12:22:05.871072,15.78887858,.0000684,97.6761,0.0210,308.1771,51.9434,0,U,48909,999,27690,.47302E-3,.83703E-3,0
YAM-3,2021-059AN,2026-06-11T21:32:32.364384,15.48438675,.00054874,97.6991,349.5081,28.4320,331.7228,0,U,48915,999,27617,.2025805E-3,.10655E-3,0
FARADAY_PHOENIX,2021-059AX,2026-06-11T12:11:34.293120,15.77019254,.0002426,97.6816,359.9107,329.9977,30.1149,0,U,48924,999,27676,.76561E-3,.125395E-2,0
DEMO8 (TENZING),2021-059CA,2026-06-11T12:19:43.609152,15.54781766,.0006772,97.7029,355.5025,16.5857,343.5616,0,U,48951,999,27642,.28895E-3,.19146E-3,0
FENGYUN 3E,2021-062A,2026-06-11T23:41:29.130144,14.19904044,.0002775,98.7494,166.4528,94.5916,265.5578,0,U,49008,999,25584,.58676267E-4,.81E-6,0
ISS (NAUKA),2021-066A,2026-06-11T20:03:08.873568,15.49179015,.00049343,51.6334,326.5798,175.2433,184.8603,0,U,49044,999,57076,.13937484E-3,.7284E-4,0
STARLINK-3100,2021-082Q,2026-06-11T23:11:47.138784,14.98319901,.00029269,70.0003,56.7425,266.3892,93.6933,0,U,49144,999,26010,.22710603E-4,.178E-5,0
CUTE,2021-088D,2026-06-11T18:47:57.115680,15.91604876,.0007892,97.4166,261.5608,239.7585,120.2908,0,U,49263,999,26169,.55611546E-3,.179217E-2,.13983288E-4
2021-091B,2021-091B,2026-06-11T23:40:02.123616,15.18530256,.00148693,97.4480,350.6408,61.8854,298.3881,0,U,49316,999,25819,.1591488E-3,.3226E-4,0
SDGSAT 1,2021-100A,2026-06-11T23:08:12.634368,15.19900729,.00067599,97.2644,210.1071,322.1731,37.9029,0,U,49387,999,25512,.99148992E-4,.2064E-4,0
TEIKYOSAT-4 (OORURI),2021-102B,2026-06-11T19:37:14.935872,15.09490070,.00108195,97.3672,192.5098,317.6256,42.4137,0,U,49396,999,25191,.1144843E-3,.1775E-4,0
Z-SAT,2021-102E,2026-06-11T23:47:27.250368,15.18223160,.00148232,97.3332,198.4716,265.2603,94.6938,0,U,49399,999,25265,.15676205E-3,.3149E-4,0
HIBARI,2021-102F,2026-06-11T17:08:30.138144,15.31618612,.00108061,97.3244,208.6799,211.6516,148.4077,0,U,49400,999,25335,.3104648E-3,.942E-4,0
KOSEN-1,2021-102H,2026-06-11T15:16:23.511072,15.26758585,.00126337,97.3194,204.9014,221.0806,138.9483,0,U,49402,999,25317,.25044627E-3,.653E-4,0
GLOBAL-14,2021-106A,2026-06-11T03:50:01.106592,15.50302998,.00167407,42.0052,326.8943,337.2624,22.7477,0,U,49469,999,25719,.39448248E-3,.22809E-3,0
GAOFEN-3 02,2021-109A,2026-06-11T23:37:25.377600,14.42216148,.00032531,98.4091,171.1547,29.9074,330.2301,0,U,49495,999,23956,.2691136E-5,-.35E-6,0
GLOBAL-12,2021-115BA,2026-06-11T11:25:42.494592,15.53231408,.0003382,53.1954,71.9934,58.0826,302.0514,0,U,49772,999,25501,.5072E-3,.32115E-3,0
GLOBAL-13,2021-115BB,2026-06-11T22:44:55.726080,15.45841987,.0004106,53.1976,79.4895,97.9358,262.2116,0,U,49773,999,25495,.37974745E-3,.18338E-3,0
GLOBAL-17,2021-120A,2026-06-11T22:35:04.210944,15.51980611,.00149451,41.9943,80.5477,222.6715,137.2970,0,U,49949,999,25408,.43168712E-3,.26536E-3,0
GLOBAL-16,2021-120B,2026-06-11T11:54:47.378880,15.49906392,.0012715,41.9943,86.8211,212.0870,147.9201,0,U,49950,999,25396,.42119E-3,.23979E-3,0
XW-3 (CAS-9),2021-131B,2026-06-11T23:41:17.026368,14.41352679,.0005282,98.4973,255.4047,108.2451,251.9313,0,U,50466,999,23436,.1439855E-3,.422E-5,0
ION SCV-004,2022-002K,2026-06-11T22:31:38.867520,15.30399738,.00077383,97.2843,220.6956,25.9115,334.2512,0,U,50993,999,24449,.16254221E-3,.4707E-4,0
ETV-A1,2022-002CE,2026-06-11T22:44:31.057152,15.40571938,.00051228,97.2887,229.2679,22.5516,337.5955,0,U,51060,999,24503,.2527226E-3,.10197E-3,0
BRO-5,2022-002CF,2026-06-11T22:44:41.158176,15.47077145,.00040365,97.3006,236.5710,355.2592,4.8619,0,U,51061,999,24544,.50871374E-3,.25715E-3,0
